STARLINK-32571          
1 62055U 24216Z   26068.89811695  .00026933  00000+0  98458-3 0  9991
2 62055  43.0016 254.6165 0001390 264.9579  95.1114 15.27583043 74019
KUIPER-00204            
1 67145U 25301N   26068.39760395  .00020516  00000+0  79568-3 0  9999
2 67145  51.8870  71.6415 0003071 354.8934   5.2016 15.26088400 13737
